start=new Date('2021-11-05T00:00:00.000Z').valueOf();
sats=[{"RCS_SIZE":"LARGE","MEAN_MOTION_DDOT":"0.0000000000000","ELEMENT_SET_NO":"999","OBJECT_NAME":"STARLINK-1944","SEMIMAJOR_AXIS":"6925.354","TLE_LINE2":"2 46796  53.0546 233.6086 0001384  77.6471 282.4673 15.06398131 57699","ARG_OF_PERICENTER":"77.6471","EPOCH":"2021-11-04T04:59:33.027360","PERIAPSIS":"546.261","SITE":"AFETR","LAUNCH_DATE":"2020-10-24","MEAN_MOTION":"15.06398131","APOAPSIS":"548.178","COUNTRY_CODE":"US","MEAN_MOTION_DOT":"0.00003113","NORAD_CAT_ID":"46796","MEAN_ANOMALY":"282.4673","INCLINATION":"53.0546","PERIOD":"95.592","EPHEMERIS_TYPE":"0","CENTER_NAME":"EARTH","REV_AT_EPOCH":"5769","TLE_LINE1":"1 46796U 20074BK  21308.20802115  .00003113  00000-0  22778-3 0  9995","REF_FRAME":"TEME","TIME_SYSTEM":"UTC","CLASSIFICATION_TYPE":"U","BSTAR":"0.00022778000000","RA_OF_ASC_NODE":"233.6086","OBJECT_ID":"2020-074BK","ECCENTRICITY":"0.00013840","DECAY_DATE":null,"MEAN_ELEMENT_THEORY":"SGP4","OBJECT_TYPE":"PAYLOAD","GP_ID":"188895380","FILE":"3200778"},{"GP_ID":"188954325","OBJECT_TYPE":"PAYLOAD","FILE":"3202404","DECAY_DATE":null,"MEAN_ELEMENT_THEORY":"SGP4","ECCENTRICITY":"0.00011280","OBJECT_ID":"2020-074BL","REF_FRAME":"TEME","TIME_SYSTEM":"UTC","RA_OF_ASC_NODE":"200.2181","BSTAR":"0.00348660000000","CLASSIFICATION_TYPE":"U","CENTER_NAME":"EARTH","REV_AT_EPOCH":"5823","EPHEMERIS_TYPE":"0","TLE_LINE1":"1 46797U 20074BL  21308.90306142  .00177414  00000-0  34866-2 0  9998","INCLINATION":"53.0566","PERIOD":"93.134","COUNTRY_CODE":"US","MEAN_ANOMALY":"233.1477","NORAD_CAT_ID":"46797","MEAN_MOTION_DOT":"0.00177414","MEAN_MOTION":"15.46162323","LAUNCH_DATE":"2020-10-24","APOAPSIS":"428.735","EPOCH":"2021-11-04T21:40:24.506688","ARG_OF_PERICENTER":"126.9633","SEMIMAJOR_AXIS":"6806.102","TLE_LINE2":"2 46797  53.0566 200.2181 0001128 126.9633 233.1477 15.46162323 58234","ELEMENT_SET_NO":"999","MEAN_MOTION_DDOT":"0.0000000000000","OBJECT_NAME":"STARLINK-1947","RCS_SIZE":"LARGE","SITE":"AFETR","PERIAPSIS":"427.199"},{"OBJECT_ID":"2020-074BM","DECAY_DATE":null,"MEAN_ELEMENT_THEORY":"SGP4","ECCENTRICITY":"0.00014480","FILE":"3202404","GP_ID":"188955076","OBJECT_TYPE":"PAYLOAD","TLE_LINE1":"1 46798U 20074BM  21308.90325129  .00004056  00000-0  29102-3 0  9994","EPHEMERIS_TYPE":"0","CENTER_NAME":"EARTH","REV_AT_EPOCH":"5745","CLASSIFICATION_TYPE":"U","RA_OF_ASC_NODE":"255.4974","BSTAR":"0.00029102000000","REF_FRAME":"TEME","TIME_SYSTEM":"UTC","MEAN_MOTION_DOT":"0.00004056","MEAN_ANOMALY":"284.2328","NORAD_CAT_ID":"46798","COUNTRY_CODE":"US","PERIOD":"95.592","INCLINATION":"53.0545","SITE":"AFETR","PERIAPSIS":"546.212","MEAN_MOTION_DDOT":"0.0000000000000","ELEMENT_SET_NO":"999","OBJECT_NAME":"STARLINK-1948","RCS_SIZE":"LARGE","EPOCH":"2021-11-04T21:40:40.911456","ARG_OF_PERICENTER":"75.8822","SEMIMAJOR_AXIS":"6925.350","TLE_LINE2":"2 46798  53.0545 255.4974 0001448  75.8822 284.2328 15.06399528 57451","APOAPSIS":"548.218","LAUNCH_DATE":"2020-10-24","MEAN_MOTION":"15.06399528"},{"EPHEMERIS_TYPE":"0","CENTER_NAME":"EARTH","REV_AT_EPOCH":"5305","TLE_LINE1":"1 47122U 20088A   21308.45956765 -.00004521  00000-0 -28458-3 0  9999","TIME_SYSTEM":"UTC","REF_FRAME":"TEME","CLASSIFICATION_TYPE":"U","RA_OF_ASC_NODE":"222.4825","BSTAR":"-0.00028458000000","OBJECT_ID":"2020-088A","DECAY_DATE":null,"MEAN_ELEMENT_THEORY":"SGP4","ECCENTRICITY":"0.00012990","GP_ID":"188905406","OBJECT_TYPE":"PAYLOAD","FILE":"3201211","OBJECT_NAME":"STARLINK-1777","MEAN_MOTION_DDOT":"0.0000000000000","ELEMENT_SET_NO":"999","RCS_SIZE":"LARGE","EPOCH":"2021-11-04T11:01:46.644960","ARG_OF_PERICENTER":"70.3064","SEMIMAJOR_AXIS":"6925.250","TLE_LINE2":"2 47122  53.0542 222.4825 0001299  70.3064 289.8065 15.06432313 53052","SITE":"AFETR","PERIAPSIS":"546.215","LAUNCH_DATE":"2020-11-25","MEAN_MOTION":"15.06432313","APOAPSIS":"548.014","COUNTRY_CODE":"US","MEAN_MOTION_DOT":"-0.00004521","MEAN_ANOMALY":"289.8065","NORAD_CAT_ID":"47122","INCLINATION":"53.0542","PERIOD":"95.590"},{"CLASSIFICATION_TYPE":"U","BSTAR":"0.00033843000000","RA_OF_ASC_NODE":"225.4721","TIME_SYSTEM":"UTC","REF_FRAME":"TEME","TLE_LINE1":"1 47124U 20088C   21308.90969762  .00004764  00000-0  33843-3 0  9993","EPHEMERIS_TYPE":"0","CENTER_NAME":"EARTH","REV_AT_EPOCH":"5275","FILE":"3202404","OBJECT_TYPE":"PAYLOAD","GP_ID":"188953620","OBJECT_ID":"2020-088C","ECCENTRICITY":"0.00015000","DECAY_DATE":null,"MEAN_ELEMENT_THEORY":"SGP4","APOAPSIS":"548.234","LAUNCH_DATE":"2020-11-25","MEAN_MOTION":"15.06405963","PERIAPSIS":"546.156","SITE":"AFETR","RCS_SIZE":"LARGE","MEAN_MOTION_DDOT":"0.0000000000000","ELEMENT_SET_NO":"999","OBJECT_NAME":"STARLINK-1785","SEMIMAJOR_AXIS":"6925.330","TLE_LINE2":"2 47124  53.0539 225.4721 0001500  68.9946 291.1203 15.06405963 52752","ARG_OF_PERICENTER":"68.9946","EPOCH":"2021-11-04T21:49:57.874368","PERIOD":"95.592","INCLINATION":"53.0539","MEAN_MOTION_DOT":"0.00004764","NORAD_CAT_ID":"47124","MEAN_ANOMALY":"291.1203","COUNTRY_CODE":"US"},{"RCS_SIZE":"LARGE","MEAN_MOTION_DDOT":"0.0000000000000","ELEMENT_SET_NO":"999","OBJECT_NAME":"STARLINK-1812","TLE_LINE2":"2 47126  53.0530 220.8828 0001446  65.3487 294.7652 15.06401019 52814","SEMIMAJOR_AXIS":"6925.345","EPOCH":"2021-11-04T19:36:39.239712","ARG_OF_PERICENTER":"65.3487","PERIAPSIS":"546.209","SITE":"AFETR","LAUNCH_DATE":"2020-11-25","MEAN_MOTION":"15.06401019","APOAPSIS":"548.212","COUNTRY_CODE":"US","MEAN_MOTION_DOT":"0.00004943","NORAD_CAT_ID":"47126","MEAN_ANOMALY":"294.7652","INCLINATION":"53.0530","PERIOD":"95.592","EPHEMERIS_TYPE":"0","CENTER_NAME":"EARTH","REV_AT_EPOCH":"5281","TLE_LINE1":"1 47126U 20088E   21308.81712083  .00004943  00000-0  35052-3 0  9990","REF_FRAME":"TEME","TIME_SYSTEM":"UTC","CLASSIFICATION_TYPE":"U","BSTAR":"0.00035052000000","RA_OF_ASC_NODE":"220.8828","OBJECT_ID":"2020-088E","ECCENTRICITY":"0.00014460","DECAY_DATE":null,"MEAN_ELEMENT_THEORY":"SGP4","OBJECT_TYPE":"PAYLOAD","GP_ID":"188953870","FILE":"3202404"},{"ECCENTRICITY":"0.00041240","MEAN_ELEMENT_THEORY":"SGP4","DECAY_DATE":null,"OBJECT_ID":"2020-088G","OBJECT_TYPE":"PAYLOAD","GP_ID":"188954621","FILE":"3202404","REV_AT_EPOCH":"5310","CENTER_NAME":"EARTH","EPHEMERIS_TYPE":"0","TLE_LINE1":"1 47128U 20088G   21308.90742679  .00002665  00000-0  19782-3 0  9997","REF_FRAME":"TEME","TIME_SYSTEM":"UTC","BSTAR":"0.00019782000000","RA_OF_ASC_NODE":"200.4612","CLASSIFICATION_TYPE":"U","COUNTRY_CODE":"US","NORAD_CAT_ID":"47128","MEAN_ANOMALY":"217.6935","MEAN_MOTION_DOT":"0.00002665","INCLINATION":"53.0527","PERIOD":"95.592","TLE_LINE2":"2 47128  53.0527 200.4612 0004124 142.4343 217.6935 15.06397449 53103","SEMIMAJOR_AXIS":"6925.356","ARG_OF_PERICENTER":"142.4343","EPOCH":"2021-11-04T21:46:41.674656","RCS_SIZE":"LARGE","ELEMENT_SET_NO":"999","MEAN_MOTION_DDOT":"0.0000000000000","OBJECT_NAME":"STARLINK-1837","PERIAPSIS":"544.365","SITE":"AFETR","MEAN_MOTION":"15.06397449","LAUNCH_DATE":"2020-11-25","APOAPSIS":"550.077"},{"COUNTRY_CODE":"US","MEAN_MOTION_DOT":"0.00002514","NORAD_CAT_ID":"47129","MEAN_ANOMALY":"292.4727","INCLINATION":"53.0536","PERIOD":"95.592","RCS_SIZE":"LARGE","MEAN_MOTION_DDOT":"0.0000000000000","ELEMENT_SET_NO":"999","OBJECT_NAME":"STARLINK-1838","SEMIMAJOR_AXIS":"6925.325","TLE_LINE2":"2 47129  53.0536 210.6419 0001783  67.6451 292.4727 15.06407711 52965","EPOCH":"2021-11-04T20:52:16.569408","ARG_OF_PERICENTER":"67.6451","PERIAPSIS":"545.955","SITE":"AFETR","LAUNCH_DATE":"2020-11-25","MEAN_MOTION":"15.06407711","APOAPSIS":"548.425","OBJECT_ID":"2020-088H","ECCENTRICITY":"0.00017830","MEAN_ELEMENT_THEORY":"SGP4","DECAY_DATE":null,"OBJECT_TYPE":"PAYLOAD","GP_ID":"188955366","FILE":"3202404","EPHEMERIS_TYPE":"0","REV_AT_EPOCH":"5296","CENTER_NAME":"EARTH","TLE_LINE1":"1 47129U 20088H   21308.86963622  .00002514  00000-0  18757-3 0  9990","TIME_SYSTEM":"UTC","REF_FRAME":"TEME","CLASSIFICATION_TYPE":"U","BSTAR":"0.00018757000000","RA_OF_ASC_NODE":"210.6419"},{"MEAN_MOTION_DOT":"0.00009718","NORAD_CAT_ID":"47130","MEAN_ANOMALY":"288.4788","COUNTRY_CODE":"US","PERIOD":"95.591","INCLINATION":"53.0537","PERIAPSIS":"545.993","SITE":"AFETR","RCS_SIZE":"LARGE","ELEMENT_SET_NO":"999","MEAN_MOTION_DDOT":"0.0000000000000","OBJECT_NAME":"STARLINK-1839","TLE_LINE2":"2 47130  53.0537 232.1993 0001670  71.6382 288.4788 15.06420750 52923","SEMIMAJOR_AXIS":"6925.285","ARG_OF_PERICENTER":"71.6382","EPOCH":"2021-11-04T12:30:41.594400","APOAPSIS":"548.306","LAUNCH_DATE":"2020-11-25","MEAN_MOTION":"15.06420750","OBJECT_ID":"2020-088J","ECCENTRICITY":"0.00016700","DECAY_DATE":null,"MEAN_ELEMENT_THEORY":"SGP4","FILE":"3201244","OBJECT_TYPE":"PAYLOAD","GP_ID":"188906432","TLE_LINE1":"1 47130U 20088J   21308.52131475  .00009718  00000-0  66999-3 0  9992","EPHEMERIS_TYPE":"0","REV_AT_EPOCH":"5292","CENTER_NAME":"EARTH","CLASSIFICATION_TYPE":"U","BSTAR":"0.00066999000000","RA_OF_ASC_NODE":"232.1993","REF_FRAME":"TEME","TIME_SYSTEM":"UTC"},{"FILE":"3202404","OBJECT_TYPE":"PAYLOAD","GP_ID":"188954364","OBJECT_ID":"2020-088K","ECCENTRICITY":"0.00007150","DECAY_DATE":null,"MEAN_ELEMENT_THEORY":"SGP4","CLASSIFICATION_TYPE":"U","BSTAR":"0.00148400000000","RA_OF_ASC_NODE":"176.1435","REF_FRAME":"TEME","TIME_SYSTEM":"UTC","TLE_LINE1":"1 47131U 20088K   21308.91174501  .00111013  00000-0  14840-2 0  9992","EPHEMERIS_TYPE":"0","CENTER_NAME":"EARTH","REV_AT_EPOCH":"5345","PERIOD":"92.473","INCLINATION":"53.0509","MEAN_MOTION_DOT":"0.00111013","NORAD_CAT_ID":"47131","MEAN_ANOMALY":"302.8863","COUNTRY_CODE":"US","APOAPSIS":"396.197","LAUNCH_DATE":"2020-11-25","MEAN_MOTION":"15.57218811","PERIAPSIS":"395.228","SITE":"AFETR","RCS_SIZE":"LARGE","MEAN_MOTION_DDOT":"0.0000000000000","OBJECT_NAME":"STARLINK-1840","ELEMENT_SET_NO":"999","TLE_LINE2":"2 47131  53.0509 176.1435 0000715  57.2216 302.8863 15.57218811 53459","SEMIMAJOR_AXIS":"6773.847","ARG_OF_PERICENTER":"57.2216","EPOCH":"2021-11-04T21:52:54.768864"}];
